[{"OBJECT_NAME":"ONEWEB-0432","OBJECT_ID":"2021-132AK","EPOCH":"2026-03-09T19:26:56.167584","MEAN_MOTION":13.18645009,"ECCENTRICITY":0.00022838,"INCLINATION":87.9252,"RA_OF_ASC_NODE":355.1664,"ARG_OF_PERICENTER":62.7951,"MEAN_ANOMALY":297.3413,"EPHEMERIS_TYPE":0,"CLASSIFICATION_TYPE":"U","NORAD_CAT_ID":50502,"ELEMENT_SET_NO":999,"REV_AT_EPOCH":20848,"BSTAR":0.00016431965,"MEAN_MOTION_DOT":7.8e-7,"MEAN_MOTION_DDOT":0},{"OBJECT_NAME":"COSMOS 1275 DEB","OBJECT_ID":"1981-053RC","EPOCH":"2026-03-08T02:17:11.079168","MEAN_MOTION":13.50009854,"ECCENTRICITY":0.01973466,"INCLINATION":83.1416,"RA_OF_ASC_NODE":193.3235,"ARG_OF_PERICENTER":107.3279,"MEAN_ANOMALY":254.9556,"EPHEMERIS_TYPE":0,"CLASSIFICATION_TYPE":"U","NORAD_CAT_ID":42140,"ELEMENT_SET_NO":999,"REV_AT_EPOCH":57188,"BSTAR":0.00069469474,"MEAN_MOTION_DOT":5.15e-6,"MEAN_MOTION_DDOT":0}]
